STARLINK-4649           
1 53831U 22114P   25083.95561109  .00002433  00000+0  17088-3 0  9992
2 53831  53.2180  74.1209 0001013  59.2144 300.8948 15.08842263139491
STARLINK-4747           
1 53832U 22114Q   25084.13221959  .00000496  00000+0  49275-4 0  9991
2 53832  53.2164  73.0882 0001293  83.5976 276.5164 15.08838047139520
STARLINK-4771           
1 53833U 22114R   25083.68055754 -.00000509  00000+0 -13882-4 0  9991
2 53833  53.2165  75.2472 0001322  89.1525 270.9619 15.08831491139996
STARLINK-4737           
1 53834U 22114S   25083.66116523 -.00000510  00000+0 -13950-4 0  9990
2 53834  53.2178  75.1271 0001466 100.5902 259.5255 15.08845099139991
STARLINK-4783           
1 53835U 22114T   25083.67222414  .00001307  00000+0  10016-3 0  9991
2 53835  53.2168  75.1951 0001466  93.5332 266.5827 15.08850969139999
STARLINK-4776           
1 53837U 22114V   25084.12853864  .00001384  00000+0  10506-3 0  9992
2 53837  53.2183  73.0687 0001592  88.6836 271.4339 15.08831779139525
STARLINK-4773           
1 53838U 22114W   25083.64006269  .00000216  00000+0  31667-4 0  9993
2 53838  53.2170  65.7186 0001386  95.4779 264.6372 15.08850414140123
STARLINK-4784           
1 53839U 22114X   25082.98504448 -.00001341  00000+0 -66192-4 0  9995
2 53839  53.2166  68.7402 0001377  81.3539 278.7609 15.08831967140021
STARLINK-4766           
1 53840U 22114Y   25083.96117578  .00000072  00000+0  22585-4 0  9996
2 53840  53.2165  64.1699 0000949  94.4577 265.6524 15.08834445139631
STARLINK-4750           
1 53841U 22114Z   25083.90134515  .00003874  00000+0  26136-3 0  9999
2 53841  53.2173  64.5078 0001658 102.2362 257.8816 15.08844124140166
STARLINK-4754           
1 53842U 22114AA  25083.95284447  .00000158  00000+0  28021-4 0  9993
2 53842  53.2172  64.1190 0001443 104.3082 255.8070 15.08843380139634
STARLINK-4769           
1 53843U 22114AB  25083.96389794 -.00000045  00000+0  15263-4 0  9996
2 53843  53.2170  64.1862 0001333  96.3116 263.8028 15.08840706139636
STARLINK-4745           
1 53844U 22114AC  25083.68051287  .00000803  00000+0  68519-4 0  9992
2 53844  53.2167  65.2638 0001366  95.1574 264.9574 15.08844204140139
STARLINK-4753           
1 53845U 22114AD  25083.95653130  .00001220  00000+0  94737-4 0  9993
2 53845  53.2163  64.1613 0001463 102.4756 257.6400 15.08835816139638
STARLINK-4746           
1 53846U 22114AE  25083.27571040 -.00000176  00000+0  70333-5 0  9995
2 53846  53.2164  67.0022 0001476  82.2981 277.8178 15.08841032140078
STARLINK-4777           
1 53847U 22114AF  25083.88293854  .00015819  00000+0  10116-2 0  9996
2 53847  53.2181  64.3929 0001508 102.5526 257.5635 15.08773560140164
STARLINK-4780           
1 53848U 22114AG  25084.12946387  .00005310  00000+0  35146-3 0  9997
2 53848  53.2166  63.0894 0001489  99.7301 260.3859 15.08842306139669
STARLINK-4770           
1 53849U 22114AH  25083.67682673  .00001231  00000+0  95422-4 0  9994
2 53849  53.2175  65.2410 0001471  80.1024 280.0134 15.08847606140132
STARLINK-4767           
1 53850U 22114AJ  25083.65471867 -.00001807  00000+0 -95437-4 0  9992
2 53850  53.2184  65.1059 0001623 104.9479 255.1693 15.08851944140133
STARLINK-4755           
1 53851U 22114AK  25083.66945212  .00006034  00000+0  39671-3 0  9996
2 53851  53.2164  65.1925 0001590  84.7127 275.4046 15.08858373140132
STARLINK-4797           
1 53852U 22114AL  25082.22553266  .00001030  00000+0  82780-4 0  9993
2 53852  53.2170  66.8343 0001394  91.9000 268.2151 15.08839992139988
STARLINK-4794           
1 53853U 22114AM  25084.12575433  .00018624  00000+0  11835-2 0  9993
2 53853  53.2161  63.0670 0001366  76.4289 283.6855 15.08891122139667
STARLINK-4800           
1 53854U 22114AN  25083.90963447 -.00002566  00000+0 -14321-3 0  9999
2 53854  53.2180  54.5755 0001607  92.4463 267.6713 15.08831466139769
STARLINK-4703           
1 53855U 22114AP  25083.66673361 -.00000786  00000+0 -31305-4 0  9990
2 53855  53.2176  65.1737 0001419  83.9982 276.1172 15.08848318140136
STARLINK-4795           
1 53856U 22114AQ  25083.62993751 -.00000131  00000+0  98864-5 0  9992
2 53856  53.2185  55.6734 0001420  90.4441 269.6714 15.08844981140268
STARLINK-4809           
1 53857U 22114AR  25083.65103957  .00000224  00000+0  32164-4 0  9999
2 53857  53.2192  65.0799 0001767  86.2005 273.9189 15.08843881140134
STARLINK-4798           
1 53858U 22114AS  25083.90595402  .00004315  00000+0  28901-3 0  9996
2 53858  53.2177  54.5537 0001591  83.2535 276.8638 15.08841445139763
STARLINK-4790           
1 53859U 22114AT  25084.12070739  .00001807  00000+0  13163-3 0  9990
2 53859  53.2180  58.0500 0001425  85.7718 274.3437 15.08836604139731
