"OBJECT_NAME","OBJECT_ID","EPOCH","MEAN_MOTION","ECCENTRICITY","INCLINATION","RA_OF_ASC_NODE","ARG_OF_PERICENTER","MEAN_ANOMALY","EPHEMERIS_TYPE","CLASSIFICATION_TYPE","NORAD_CAT_ID","ELEMENT_SET_NO","REV_AT_EPOCH","BSTAR","MEAN_MOTION_DOT","MEAN_MOTION_DDOT"
"STARLINK-4649","2022-114P","2025-03-24T22:56:04.798176",15.08842263,0.0001013,53.218,74.1209,59.2144,300.8948,0,"U",53831,999,13949,0.00017088,0.00002433,0
"STARLINK-4747","2022-114Q","2025-03-25T03:10:23.772576",15.08838047,0.0001293,53.2164,73.0882,83.5976,276.5164,0,"U",53832,999,13952,0.000049275,0.00000496,0
"STARLINK-4771","2022-114R","2025-03-24T16:20:00.171456",15.08831491,0.0001322,53.2165,75.2472,89.1525,270.9619,0,"U",53833,999,13999,-0.000013882,-0.00000509,0
"STARLINK-4737","2022-114S","2025-03-24T15:52:04.675872",15.08845099,0.0001466,53.2178,75.1271,100.5902,259.5255,0,"U",53834,999,13999,-0.00001395,-0.0000051,0
"STARLINK-4783","2022-114T","2025-03-24T16:08:00.165696",15.08850969,0.0001466,53.2168,75.1951,93.5332,266.5827,0,"U",53835,999,13999,0.00010016,0.00001307,0
"STARLINK-4776","2022-114V","2025-03-25T03:05:05.738496",15.08831779,0.0001592,53.2183,73.0687,88.6836,271.4339,0,"U",53837,999,13952,0.00010506,0.00001384,0
"STARLINK-4773","2022-114W","2025-03-24T15:21:41.416416",15.08850414,0.0001386,53.217,65.7186,95.4779,264.6372,0,"U",53838,999,14012,0.000031667,0.00000216,0
"STARLINK-4784","2022-114X","2025-03-23T23:38:27.843072",15.08831967,0.0001377,53.2166,68.7402,81.3539,278.7609,0,"U",53839,999,14002,-0.000066192,-0.00001341,0
"STARLINK-4766","2022-114Y","2025-03-24T23:04:05.587392",15.08834445,0.0000949,53.2165,64.1699,94.4577,265.6524,0,"U",53840,999,13963,0.000022585,7.2e-7,0
"STARLINK-4750","2022-114Z","2025-03-24T21:37:56.220960",15.08844124,0.0001658,53.2173,64.5078,102.2362,257.8816,0,"U",53841,999,14016,0.00026136,0.00003874,0
"STARLINK-4754","2022-114AA","2025-03-24T22:52:05.762208",15.0884338,0.0001443,53.2172,64.119,104.3082,255.807,0,"U",53842,999,13963,0.000028021,0.00000158,0
"STARLINK-4769","2022-114AB","2025-03-24T23:08:00.782016",15.08840706,0.0001333,53.217,64.1862,96.3116,263.8028,0,"U",53843,999,13963,0.000015263,-4.5e-7,0
"STARLINK-4745","2022-114AC","2025-03-24T16:19:56.311968",15.08844204,0.0001366,53.2167,65.2638,95.1574,264.9574,0,"U",53844,999,14013,0.000068519,0.00000803,0
"STARLINK-4753","2022-114AD","2025-03-24T22:57:24.304320",15.08835816,0.0001463,53.2163,64.1613,102.4756,257.64,0,"U",53845,999,13963,0.000094737,0.0000122,0
"STARLINK-4746","2022-114AE","2025-03-24T06:37:01.378560",15.08841032,0.0001476,53.2164,67.0022,82.2981,277.8178,0,"U",53846,999,14007,0.0000070333,-0.00000176,0
"STARLINK-4777","2022-114AF","2025-03-24T21:11:25.889856",15.0877356,0.0001508,53.2181,64.3929,102.5526,257.5635,0,"U",53847,999,14016,0.0010116,0.00015819,0
"STARLINK-4780","2022-114AG","2025-03-25T03:06:25.678368",15.08842306,0.0001489,53.2166,63.0894,99.7301,260.3859,0,"U",53848,999,13966,0.00035146,0.0000531,0
"STARLINK-4770","2022-114AH","2025-03-24T16:14:37.829472",15.08847606,0.0001471,53.2175,65.241,80.1024,280.0134,0,"U",53849,999,14013,0.000095422,0.00001231,0
"STARLINK-4767","2022-114AJ","2025-03-24T15:42:47.693088",15.08851944,0.0001623,53.2184,65.1059,104.9479,255.1693,0,"U",53850,999,14013,-0.000095437,-0.00001807,0
"STARLINK-4755","2022-114AK","2025-03-24T16:04:00.663168",15.08858373,0.000159,53.2164,65.1925,84.7127,275.4046,0,"U",53851,999,14013,0.00039671,0.00006034,0
"STARLINK-4797","2022-114AL","2025-03-23T05:24:46.021824",15.08839992,0.0001394,53.217,66.8343,91.9,268.2151,0,"U",53852,999,13998,0.00008278,0.0000103,0
"STARLINK-4794","2022-114AM","2025-03-25T03:01:05.174112",15.08891122,0.0001366,53.2161,63.067,76.4289,283.6855,0,"U",53853,999,13966,0.0011835,0.00018624,0
"STARLINK-4800","2022-114AN","2025-03-24T21:49:52.418208",15.08831466,0.0001607,53.218,54.5755,92.4463,267.6713,0,"U",53854,999,13976,-0.00014321,-0.00002566,0
"STARLINK-4703","2022-114AP","2025-03-24T16:00:05.783904",15.08848318,0.0001419,53.2176,65.1737,83.9982,276.1172,0,"U",53855,999,14013,-0.000031305,-0.00000786,0
"STARLINK-4795","2022-114AQ","2025-03-24T15:07:06.600864",15.08844981,0.000142,53.2185,55.6734,90.4441,269.6714,0,"U",53856,999,14026,0.0000098864,-0.00000131,0
"STARLINK-4809","2022-114AR","2025-03-24T15:37:29.818848",15.08843881,0.0001767,53.2192,65.0799,86.2005,273.9189,0,"U",53857,999,14013,0.000032164,0.00000224,0
"STARLINK-4798","2022-114AS","2025-03-24T21:44:34.427328",15.08841445,0.0001591,53.2177,54.5537,83.2535,276.8638,0,"U",53858,999,13976,0.00028901,0.00004315,0
"STARLINK-4790","2022-114AT","2025-03-25T02:53:49.118496",15.08836604,0.0001425,53.218,58.05,85.7718,274.3437,0,"U",53859,999,13973,0.00013163,0.00001807,0
